OBJECT_NAME,OBJECT_ID,EPOCH,MEAN_MOTION,ECCENTRICITY,INCLINATION,RA_OF_ASC_NODE,ARG_OF_PERICENTER,MEAN_ANOMALY,EPHEMERIS_TYPE,CLASSIFICATION_TYPE,NORAD_CAT_ID,ELEMENT_SET_NO,REV_AT_EPOCH,BSTAR,MEAN_MOTION_DOT,MEAN_MOTION_DDOT
STARLINK-33989,2025-098D,2026-06-29T20:41:42.808992,14.98336811,.00029208,70.0019,351.6784,267.9809,92.1016,0,U,63929,999,6337,.24347594E-3,.2814E-4,0
STARLINK-33980,2025-098E,2026-06-30T11:36:44.327232,14.98338367,.00030926,70.0023,350.2379,269.0689,91.0116,0,U,63930,999,6346,.26202215E-3,.3035E-4,0
STARLINK-33994,2025-098F,2026-06-29T20:35:42.114048,14.98335902,.00026074,70.0020,351.6635,268.6694,91.4167,0,U,63931,999,6337,.21003744E-3,.2414E-4,0
STARLINK-33971,2025-098G,2026-06-30T11:30:57.931488,14.98338044,.00030462,70.0021,350.2242,266.7580,93.3231,0,U,63932,999,6346,.32014826E-3,.373E-4,0
STARLINK-33877,2025-098H,2026-06-29T21:35:46.269312,14.98339255,.00025463,70.0014,351.3984,270.4140,89.6727,0,U,63933,999,6338,.29558472E-3,.3436E-4,0
STARLINK-33895,2025-098J,2026-06-29T21:47:48.369408,14.98339830,.00029516,70.0020,351.4349,267.9252,92.1569,0,U,63934,999,6338,.41831723E-3,.4903E-4,0
STARLINK-34005,2025-098K,2026-06-30T11:36:58.514112,14.98337617,.00030397,70.0023,350.2298,266.2190,93.8621,0,U,63935,999,6345,.27012028E-3,.3132E-4,0
STARLINK-34027,2025-098L,2026-06-30T11:48:57.452832,14.98339458,.00028774,70.0024,349.8585,266.7798,93.3032,0,U,63936,999,6345,.24163654E-3,.2792E-4,0
STARLINK-34035,2025-098M,2026-06-29T22:05:49.364736,14.98338041,.00028912,70.0020,351.4781,263.9032,96.1798,0,U,63937,999,6336,.26073001E-3,.302E-4,0
STARLINK-33988,2025-098N,2026-06-29T22:23:37.128768,14.98337796,.00031435,70.0017,351.5241,267.1335,92.9465,0,U,63938,999,6336,.27263752E-3,.3162E-4,0
STARLINK-34020,2025-098P,2026-06-30T12:06:59.478048,14.98337668,.00027936,70.0027,349.9056,264.4320,95.6520,0,U,63939,999,6345,.52453907E-3,.6172E-4,0
STARLINK-34021,2025-098Q,2026-06-30T11:42:59.273856,14.98336409,.00025996,70.0023,350.2439,268.1714,91.9148,0,U,63940,999,6344,.22331861E-3,.2573E-4,0
STARLINK-34004,2025-098R,2026-06-29T21:53:48.125184,14.98340516,.00026535,70.0019,351.4413,269.0563,91.0292,0,U,63941,999,6336,.32481143E-3,.3786E-4,0
STARLINK-34014,2025-098S,2026-06-29T21:59:34.456992,14.98338879,.00031251,70.0015,351.4603,269.5643,90.5158,0,U,63942,999,6335,.71395766E-3,.8438E-4,0
STARLINK-33985,2025-098T,2026-06-30T12:00:44.440704,14.98337826,.00029917,70.0014,349.8798,266.7630,93.3186,0,U,63943,999,6345,.2629628E-3,.3047E-4,0
STARLINK-33996,2025-098U,2026-06-29T22:23:51.504000,14.98331996,.00030108,70.0019,351.5231,267.5515,92.5299,0,U,63944,999,6336,.37037259E-3,.4329E-4,0
STARLINK-34036,2025-098V,2026-06-29T20:59:44.542176,14.98342388,.00029348,70.0021,351.7230,265.6030,94.4794,0,U,63945,999,6335,.50083695E-3,.589E-4,0
STARLINK-34039,2025-098W,2026-06-30T11:18:56.579616,14.98336376,.00033391,70.0020,350.1921,259.1771,100.9012,0,U,63946,999,6344,.22409363E-3,.2582E-4,0
STARLINK-34034,2025-098X,2026-06-30T11:18:42.582816,14.98334157,.00024563,70.0020,350.1915,264.2665,95.8214,0,U,63947,999,6344,.17789983E-3,.2031E-4,0
STARLINK-33983,2025-098Y,2026-06-29T21:59:48.713856,14.98339238,.00027792,70.0017,351.4608,264.4441,95.6401,0,U,63948,999,6336,.24100779E-3,.2785E-4,0
STARLINK-33993,2025-098Z,2026-06-30T20:00:01.999008,14.98315704,.0002866,70.0021,349.0147,269.4672,107.0654,0,U,63949,999,566,.30395E-2,.36349E-3,0
STARLINK-33962,2025-098AA,2026-06-30T12:06:45.131328,14.98337280,.00026732,70.0022,349.9022,272.3547,87.7306,0,U,63950,999,6344,.2590142E-3,.2999E-4,0
STARLINK-33998,2025-098AB,2026-06-30T00:00:02.000160,14.98338116,.00030816,70.0016,351.2005,269.9234,226.2511,0,U,63951,999,573,-.43496649E-3,-.528E-4,0
STARLINK-34159,2025-099A,2026-06-30T16:21:53.689824,15.27582093,.0002227,42.9998,258.4002,275.1416,84.9181,0,U,63952,999,6460,.3493E-3,.9363E-4,0
STARLINK-34137,2025-099B,2026-06-30T15:55:59.543040,15.27591668,.0000679,43.0021,258.2571,284.4517,75.6260,0,U,63953,999,6461,.73254E-3,.19957E-3,0
STARLINK-33974,2025-099C,2026-06-30T13:24:41.139072,15.27584695,.0002014,42.9989,259.1927,257.6195,102.4432,0,U,63954,999,6459,.53664E-3,.14537E-3,0
STARLINK-34170,2025-099D,2026-06-30T13:19:08.329728,15.27589626,.000163,43.0000,259.1660,280.9883,79.0785,0,U,63955,999,6458,.51544E-3,.13953E-3,0
STARLINK-34187,2025-099E,2026-06-29T23:02:30.842880,15.27566424,.00013691,43.0000,262.4383,254.6796,105.3904,0,U,63956,999,6450,.62056659E-3,.16847E-3,0
STARLINK-34142,2025-099F,2026-06-30T13:04:20.142912,15.27583629,.0001308,43.0042,259.0844,276.7971,83.2732,0,U,63957,999,6459,.65268E-3,.17743E-3,0
STARLINK-34144,2025-099G,2026-06-30T14:32:56.052384,15.27581400,.0002341,43.0022,258.6837,257.5960,102.4630,0,U,63958,999,6460,.53216E-3,.14411E-3,0
STARLINK-34099,2025-099H,2026-06-30T14:49:35.698656,15.27583249,.0001556,42.9999,258.7769,280.9386,79.1291,0,U,63959,999,6460,.40041E-3,.10773E-3,0
STARLINK-34107,2025-099J,2026-06-30T14:27:23.344992,15.27573378,.0001904,43.0056,258.6497,258.7848,101.2789,0,U,63960,999,6460,.54776E-3,.14838E-3,0
STARLINK-34121,2025-099K,2026-06-30T14:18:08.531712,15.27588089,.000038,43.0011,258.6042,289.8317,70.2494,0,U,63961,999,6460,.54039E-3,.14641E-3,0
STARLINK-34103,2025-099L,2026-06-29T22:31:01.833888,15.27567628,.00026204,43.0064,262.2663,265.6608,94.3945,0,U,63962,999,6450,.81745625E-3,.22293E-3,0
STARLINK-33801,2025-099M,2026-06-30T14:01:29.156736,15.27586334,.0000731,43.0016,258.5107,300.0703,60.0076,0,U,63963,999,6460,.39612E-3,.10656E-3,0
STARLINK-34135,2025-099N,2026-06-30T14:07:01.800192,15.27586726,.0002849,42.9995,258.5473,268.2883,91.7642,0,U,63964,999,6460,.48098E-3,.13E-3,0
STARLINK-34147,2025-099P,2026-06-29T22:14:21.753888,15.27588170,.00009917,43.0028,262.1767,301.9344,58.1411,0,U,63965,999,6450,.29666153E-3,.7912E-4,0
STARLINK-33960,2025-099Q,2026-06-30T13:50:22.964352,15.27584670,.0000999,42.9992,258.4537,282.2525,77.8215,0,U,63966,999,6460,.67757E-3,.18432E-3,0
STARLINK-34153,2025-099R,2026-06-30T13:41:07.356192,15.27598402,.0000559,42.9992,258.4054,15.7220,344.3649,0,U,63967,999,6460,.53654E-3,.1454E-3,0
STARLINK-33963,2025-099S,2026-06-30T16:54:59.476320,15.27592421,.0001484,42.9986,257.6961,273.3346,86.7335,0,U,63968,999,6462,.112E-2,.30697E-3,0
STARLINK-34112,2025-099T,2026-06-30T13:35:34.514016,15.27590006,.0001549,42.9968,258.3764,277.2601,82.8074,0,U,63969,999,6460,.67882E-3,.1847E-3,0
STARLINK-34084,2025-099U,2026-06-30T15:04:10.267104,15.27590815,.0002603,43.0008,257.9750,258.6819,101.3740,0,U,63970,999,6461,.5148E-3,.13936E-3,0
STARLINK-34138,2025-099V,2026-06-30T14:13:16.579200,15.27588282,.000202,43.0066,255.1017,257.6882,102.3744,0,U,63971,999,6464,.48825E-3,.13201E-3,0
STARLINK-34115,2025-099W,2026-06-30T15:32:38.268960,15.27578496,.0000585,42.9952,254.6694,312.4481,47.6321,0,U,63972,999,6465,.25652E-3,.6803E-4,0
STARLINK-34028,2025-099X,2026-06-30T16:15:11.337984,15.27462232,.0004113,42.9987,254.8913,253.3764,106.6636,0,U,63973,999,6465,.18063E-2,.49608E-3,0
STARLINK-33942,2025-099Y,2026-06-30T16:09:39.070368,15.27584525,.0000978,42.9958,254.8616,354.3637,5.7204,0,U,63974,999,6465,.54737E-3,.14833E-3,0
STARLINK-34139,2025-099Z,2026-06-30T14:29:55.757184,15.27592187,.0001973,43.0020,255.1980,263.3877,96.6750,0,U,63975,999,6455,.75669E-3,.20627E-3,0
STARLINK-34090,2025-099AA,2026-06-30T12:50:13.086816,15.27567165,.00020911,43.0032,255.5352,260.9431,99.1184,0,U,63976,999,6454,.12612152E-3,.3208E-4,0
STARLINK-34105,2025-099AB,2026-06-30T14:20:40.420320,15.27578998,.0002213,43.0044,255.1426,254.8219,105.2388,0,U,63977,999,6455,.2984E-3,.7958E-4,0
STARLINK-33642,2025-099AC,2026-06-30T15:43:43.955040,15.27586965,.0001565,43.0025,254.7156,267.2746,92.7927,0,U,63978,999,6456,.48921E-3,.13227E-3,0
STARLINK-34045,2025-099AD,2026-06-30T14:04:01.771968,15.27580771,.0000627,43.0020,255.0529,274.6776,85.4004,0,U,63979,999,6455,.59777E-3,.16224E-3,0
STARLINK-33871,2025-101A,2026-06-30T18:09:34.032096,15.27589331,.0001644,43.0011,79.7432,265.9153,94.1510,0,U,63994,999,6427,.10912E-2,.29897E-3,0
STARLINK-34154,2025-101B,2026-06-30T19:03:00.845856,15.27592310,.0001609,42.9949,79.1564,268.1100,91.9567,0,U,63995,999,6435,.50214E-3,.13587E-3,0
STARLINK-34158,2025-101C,2026-06-30T17:17:45.811104,15.27596972,.0001499,43.0009,79.5108,263.5878,96.4803,0,U,63996,999,6434,.94646E-3,.25887E-3,0
STARLINK-34165,2025-101D,2026-06-30T18:35:15.459936,15.27617703,.0001237,42.9998,79.0115,232.6077,127.4662,0,U,63997,999,6435,.83882E-3,.22919E-3,0
STARLINK-34150,2025-101E,2026-06-30T00:42:44.533440,15.27587807,.00014488,42.9997,83.7500,268.4807,91.5879,0,U,63998,999,6423,.64098049E-3,.17422E-3,0
STARLINK-34169,2025-101F,2026-06-30T18:50:03.808320,15.27588161,.0001353,42.9993,79.0913,263.9446,96.1251,0,U,63999,999,6435,.66795E-3,.18168E-3,0
STARLINK-34152,2025-101G,2026-06-30T18:59:18.925728,15.27586029,.0001304,43.0001,79.1385,260.5365,99.5339,0,U,64000,999,6435,.67042E-3,.18235E-3,0
STARLINK-33927,2025-101H,2026-06-30T18:22:31.367712,15.27602826,.0001743,43.0006,79.8107,281.7218,78.3438,0,U,64001,999,6434,.10552E-2,.28908E-3,0
STARLINK-33898,2025-101J,2026-06-30T18:11:25.087200,15.27589990,.0001166,43.0006,79.7557,247.6203,112.4525,0,U,64002,999,6434,.63282E-3,.17198E-3,0
STARLINK-33928,2025-101K,2026-06-30T16:53:42.304704,15.27593717,.0001915,43.0025,79.3450,288.5207,71.5436,0,U,64003,999,6434,.57821E-3,.1569E-3,0
STARLINK-33758,2025-101L,2026-06-30T17:45:30.904128,15.27594040,.0001209,42.9997,79.6123,271.6393,88.4320,0,U,64004,999,6434,.10449E-2,.28614E-3,0
STARLINK-33936,2025-101M,2026-06-30T20:00:01.999008,15.27590553,.0001452,43.0017,78.8696,268.7683,337.5910,0,U,64005,999,590,.67693E-3,.18418E-3,0
STARLINK-33931,2025-101N,2026-06-30T18:29:42.296352,15.27593470,.0001243,42.9984,78.9781,194.3016,165.7801,0,U,64006,999,6437,.76424E-3,.20836E-3,0
STARLINK-33759,2025-101P,2026-06-30T18:44:30.774336,15.27592541,.0001585,43.0023,79.0593,273.7692,86.2979,0,U,64007,999,6435,.11169E-2,.30612E-3,0
